{"type": "FeatureCollection", "features": [ {"type": "Feature", "properties": {"norad_id": 66597, "name": "STARLINK-35820", "group": "last-30-days", "lat": 1.0710847552680818, "lon": -148.39695092167244, "alt_km": 402.05542844997126, "timestamp": "2025-12-09T16:56:35.359696+00:00", "meta": {"OBJECT_NAME": "STARLINK-35820", "OBJECT_ID": "2025-270K", "EPOCH": "2025-12-09T12:00:02.000160", "MEAN_MOTION": 15.55895023, "ECCENTRICITY": 0.0001752, "INCLINATION": 42.9994, "RA_OF_ASC_NODE": 211.6671, "ARG_OF_PERICENTER": 257.1439, "MEAN_ANOMALY": 29.922, "EPHEMERIS_TYPE": 0, "CLASSIFICATION_TYPE": "U", "NORAD_CAT_ID": 66597, "ELEMENT_SET_NO": 999, "REV_AT_EPOCH": 398, "BSTAR": -0.032085, "MEAN_MOTION_DOT": -0.02039, "MEAN_MOTION_DDOT": 0}, "tle": {"line1": "1 66597U 25270K   25343.50002315 -.02039000  00000+0 -32085-1 0  9996", "line2": "2 66597  42.9994 211.6671 0001752 257.1439  29.9220 15.55895023  3989"}}, "geometry": {"type": "Point", "coordinates": [-148.39695092167244, 1.0710847552680818]}}, {"type": "Feature", "properties": {"norad_id": 66598, "name": "STARLINK-35981", "group": "last-30-days", "lat": 2.377477794074731, "lon": -146.99787210198446, "alt_km": 402.0831854447806, "timestamp": "2025-12-09T16:56:35.359706+00:00", "meta": {"OBJECT_NAME": "STARLINK-35981", "OBJECT_ID": "2025-270L", "EPOCH": "2025-12-09T12:00:02.000160", "MEAN_MOTION": 15.55895174, "ECCENTRICITY": 0.0001773, "INCLINATION": 42.9993, "RA_OF_ASC_NODE": 211.6621, "ARG_OF_PERICENTER": 250.5797, "MEAN_ANOMALY": 38.4043, "EPHEMERIS_TYPE": 0, "CLASSIFICATION_TYPE": "U", "NORAD_CAT_ID": 66598, "ELEMENT_SET_NO": 999, "REV_AT_EPOCH": 372, "BSTAR": -0.032124, "MEAN_MOTION_DOT": -0.02041213, "MEAN_MOTION_DDOT": 0}, "tle": {"line1": "1 66598U 25270L   25343.50002315 -.02041213  00000+0 -32124-1 0  9990", "line2": "2 66598  42.9993 211.6621 0001773 250.5797  38.4043 15.55895174  3728"}}, "geometry": {"type": "Point", "coordinates": [-146.99787210198446, 2.377477794074731]}}, {"type": "Feature", "properties": {"norad_id": 66599, "name": "STARLINK-35930", "group": "last-30-days", "lat": 3.681563285419726, "lon": -145.59630416099807, "alt_km": 401.9029536203243, "timestamp": "2025-12-09T16:56:35.359716+00:00", "meta": {"OBJECT_NAME": "STARLINK-35930", "OBJECT_ID": "2025-270M", "EPOCH": "2025-12-09T12:00:02.000160", "MEAN_MOTION": 15.55890498, "ECCENTRICITY": 0.0001718, "INCLINATION": 42.9995, "RA_OF_ASC_NODE": 211.6579, "ARG_OF_PERICENTER": 252.0291, "MEAN_ANOMALY": 38.8734, "EPHEMERIS_TYPE": 0, "CLASSIFICATION_TYPE": "U", "NORAD_CAT_ID": 66599, "ELEMENT_SET_NO": 999, "REV_AT_EPOCH": 388, "BSTAR": -0.032012, "MEAN_MOTION_DOT": -0.0203448, "MEAN_MOTION_DDOT": 0}, "tle": {"line1": "1 66599U 25270M   25343.50002315 -.02034480  00000+0 -32012-1 0  9995", "line2": "2 66599  42.9995 211.6579 0001718 252.0291  38.8734 15.55890498  3880"}}, "geometry": {"type": "Point", "coordinates": [-145.59630416099807, 3.681563285419726]}}, {"type": "Feature", "properties": {"norad_id": 66600, "name": "STARLINK-35980", "group": "last-30-days", "lat": 4.985333716877635, "lon": -144.18922904137582, "alt_km": 401.6182075810202, "timestamp": "2025-12-09T16:56:35.359728+00:00", "meta": {"OBJECT_NAME": "STARLINK-35980", "OBJECT_ID": "2025-270N", "EPOCH": "2025-12-09T12:00:02.000160", "MEAN_MOTION": 15.55893474, "ECCENTRICITY": 0.00017, "INCLINATION": 42.9994, "RA_OF_ASC_NODE": 211.653, "ARG_OF_PERICENTER": 258.0933, "MEAN_ANOMALY": 34.7256, "EPHEMERIS_TYPE": 0, "CLASSIFICATION_TYPE": "U", "NORAD_CAT_ID": 66600, "ELEMENT_SET_NO": 999, "REV_AT_EPOCH": 378, "BSTAR": -0.032072, "MEAN_MOTION_DOT": -0.02038074, "MEAN_MOTION_DDOT": 0}, "tle": {"line1": "1 66600U 25270N   25343.50002315 -.02038074  00000+0 -32072-1 0  9997", "line2": "2 66600  42.9994 211.6530 0001700 258.0933  34.7256 15.55893474  3789"}}, "geometry": {"type": "Point", "coordinates": [-144.18922904137582, 4.985333716877635]}}, {"type": "Feature", "properties": {"norad_id": 66601, "name": "STARLINK-35978", "group": "last-30-days", "lat": 6.284188893737651, "lon": -142.77863783550245, "alt_km": 401.54863698815825, "timestamp": "2025-12-09T16:56:35.359738+00:00", "meta": {"OBJECT_NAME": "STARLINK-35978", "OBJECT_ID": "2025-270P", "EPOCH": "2025-12-09T12:00:02.000160", "MEAN_MOTION": 15.5588993, "ECCENTRICITY": 0.0001662, "INCLINATION": 42.9995, "RA_OF_ASC_NODE": 211.6481, "ARG_OF_PERICENTER": 254.4972, "MEAN_ANOMALY": 40.2401, "EPHEMERIS_TYPE": 0, "CLASSIFICATION_TYPE": "U", "NORAD_CAT_ID": 66601, "ELEMENT_SET_NO": 999, "REV_AT_EPOCH": 372, "BSTAR": -0.031998, "MEAN_MOTION_DOT": -0.0203361, "MEAN_MOTION_DDOT": 0}, "tle": {"line1": "1 66601U 25270P   25343.50002315 -.02033610  00000+0 -31998-1 0  9995", "line2": "2 66601  42.9995 211.6481 0001662 254.4972  40.2401 15.55889930  3726"}}, "geometry": {"type": "Point", "coordinates": [-142.77863783550245, 6.284188893737651]}}, {"type": "Feature", "properties": {"norad_id": 66602, "name": "STARLINK-36050", "group": "last-30-days", "lat": 7.579446217871795, "lon": -141.36068113172257, "alt_km": 401.45245835520655, "timestamp": "2025-12-09T16:56:35.359747+00:00", "meta": {"OBJECT_NAME": "STARLINK-36050", "OBJECT_ID": "2025-270Q", "EPOCH": "2025-12-09T12:00:02.000160", "MEAN_MOTION": 15.5588791, "ECCENTRICITY": 0.000177, "INCLINATION": 42.9994, "RA_OF_ASC_NODE": 211.6432, "ARG_OF_PERICENTER": 253.6979, "MEAN_ANOMALY": 42.9552, "EPHEMERIS_TYPE": 0, "CLASSIFICATION_TYPE": "U", "NORAD_CAT_ID": 66602, "ELEMENT_SET_NO": 999, "REV_AT_EPOCH": 378, "BSTAR": -0.031934, "MEAN_MOTION_DOT": -0.02029943, "MEAN_MOTION_DDOT": 0}, "tle": {"line1": "1 66602U 25270Q   25343.50002315 -.02029943  00000+0 -31934-1 0  9990", "line2": "2 66602  42.9994 211.6432 0001770 253.6979  42.9552 15.55887910  3788"}}, "geometry": {"type": "Point", "coordinates": [-141.36068113172257, 7.579446217871795]}}, {"type": "Feature", "properties": {"norad_id": 66603, "name": "STARLINK-36048", "group": "last-30-days", "lat": 8.87414992854666, "lon": -139.92998606740198, "alt_km": 401.2866228023713, "timestamp": "2025-12-09T16:56:35.359757+00:00", "meta": {"OBJECT_NAME": "STARLINK-36048", "OBJECT_ID": "2025-270R", "EPOCH": "2025-12-09T12:00:02.000160", "MEAN_MOTION": 15.55897176, "ECCENTRICITY": 0.0001786, "INCLINATION": 42.9996, "RA_OF_ASC_NODE": 211.638, "ARG_OF_PERICENTER": 254.5188, "MEAN_ANOMALY": 44.052, "EPHEMERIS_TYPE": 0, "CLASSIFICATION_TYPE": "U", "NORAD_CAT_ID": 66603, "ELEMENT_SET_NO": 999, "REV_AT_EPOCH": 378, "BSTAR": -0.0322, "MEAN_MOTION_DOT": -0.02045667, "MEAN_MOTION_DDOT": 0}, "tle": {"line1": "1 66603U 25270R   25343.50002315 -.02045667  00000+0 -32200-1 0  9999", "line2": "2 66603  42.9996 211.6380 0001786 254.5188  44.0520 15.55897176  3785"}}, "geometry": {"type": "Point", "coordinates": [-139.92998606740198, 8.87414992854666]}}, {"type": "Feature", "properties": {"norad_id": 66604, "name": "STARLINK-35977", "group": "last-30-days", "lat": 10.158228125464822, "lon": -138.4946739615468, "alt_km": 401.1226985790927, "timestamp": "2025-12-09T16:56:35.359769+00:00", "meta": {"OBJECT_NAME": "STARLINK-35977", "OBJECT_ID": "2025-270S", "EPOCH": "2025-12-09T12:00:02.000160", "MEAN_MOTION": 15.55894774, "ECCENTRICITY": 0.0001619, "INCLINATION": 42.9997, "RA_OF_ASC_NODE": 211.633, "ARG_OF_PERICENTER": 252.3572, "MEAN_ANOMALY": 48.1309, "EPHEMERIS_TYPE": 0, "CLASSIFICATION_TYPE": "U", "NORAD_CAT_ID": 66604, "ELEMENT_SET_NO": 999, "REV_AT_EPOCH": 388, "BSTAR": -0.032118, "MEAN_MOTION_DOT": -0.02040745, "MEAN_MOTION_DDOT": 0}, "tle": {"line1": "1 66604U 25270S   25343.50002315 -.02040745  00000+0 -32118-1 0  9990", "line2": "2 66604  42.9997 211.6330 0001619 252.3572  48.1309 15.55894774  3882"}}, "geometry": {"type": "Point", "coordinates": [-138.4946739615468, 10.158228125464822]}}, {"type": "Feature", "properties": {"norad_id": 66605, "name": "STARLINK-36052", "group": "last-30-days", "lat": 11.439522640155824, "lon": -137.0427140379569, "alt_km": 400.9766768278578, "timestamp": "2025-12-09T16:56:35.359779+00:00", "meta": {"OBJECT_NAME": "STARLINK-36052", "OBJECT_ID": "2025-270T", "EPOCH": "2025-12-09T12:00:02.000160", "MEAN_MOTION": 15.55899074, "ECCENTRICITY": 0.0001807, "INCLINATION": 42.9993, "RA_OF_ASC_NODE": 211.6288, "ARG_OF_PERICENTER": 255.1996, "MEAN_ANOMALY": 47.204, "EPHEMERIS_TYPE": 0, "CLASSIFICATION_TYPE": "U", "NORAD_CAT_ID": 66605, "ELEMENT_SET_NO": 999, "REV_AT_EPOCH": 388, "BSTAR": -0.032252, "MEAN_MOTION_DOT": -0.02048759, "MEAN_MOTION_DDOT": 0}, "tle": {"line1": "1 66605U 25270T   25343.50002315 -.02048759  00000+0 -32252-1 0  9993", "line2": "2 66605  42.9993 211.6288 0001807 255.1996  47.2040 15.55899074  3881"}}, "geometry": {"type": "Point", "coordinates": [-137.0427140379569, 11.439522640155824]}}, {"type": "Feature", "properties": {"norad_id": 66606, "name": "STARLINK-36063", "group": "last-30-days", "lat": 13.97326017847937, "lon": -134.1074043574882, "alt_km": 400.67217586730385, "timestamp": "2025-12-09T16:56:35.359789+00:00", "meta": {"OBJECT_NAME": "STARLINK-36063", "OBJECT_ID": "2025-270U", "EPOCH": "2025-12-09T12:00:02.000160", "MEAN_MOTION": 15.55887841, "ECCENTRICITY": 0.000158, "INCLINATION": 42.9995, "RA_OF_ASC_NODE": 211.6183, "ARG_OF_PERICENTER": 250.3475, "MEAN_ANOMALY": 55.8937, "EPHEMERIS_TYPE": 0, "CLASSIFICATION_TYPE": "U", "NORAD_CAT_ID": 66606, "ELEMENT_SET_NO": 999, "REV_AT_EPOCH": 388, "BSTAR": -0.031925, "MEAN_MOTION_DOT": -0.02029266, "MEAN_MOTION_DDOT": 0}, "tle": {"line1": "1 66606U 25270U   25343.50002315 -.02029266  00000+0 -31925-1 0  9992", "line2": "2 66606  42.9995 211.6183 0001580 250.3475  55.8937 15.55887841  3884"}}, "geometry": {"type": "Point", "coordinates": [-134.1074043574882, 13.97326017847937]}}]}